[{"OBJECT_NAME":"PROTOMETHEE","OBJECT_ID":"2023-174BT","EPOCH":"2026-03-09T23:28:08.029344","MEAN_MOTION":15.30202663,"ECCENTRICITY":0.00088339,"INCLINATION":97.3826,"RA_OF_ASC_NODE":147.9552,"ARG_OF_PERICENTER":148.5993,"MEAN_ANOMALY":211.5776,"EPHEMERIS_TYPE":0,"CLASSIFICATION_TYPE":"U","NORAD_CAT_ID":58321,"ELEMENT_SET_NO":999,"REV_AT_EPOCH":12979,"BSTAR":0.00015715731,"MEAN_MOTION_DOT":4.52e-5,"MEAN_MOTION_DDOT":0},{"OBJECT_NAME":"STARLINK-31747","OBJECT_ID":"2024-076A","EPOCH":"2026-03-09T03:46:34.440384","MEAN_MOTION":15.27569115,"ECCENTRICITY":0.00023006,"INCLINATION":43.0044,"RA_OF_ASC_NODE":1.4223,"ARG_OF_PERICENTER":246.2125,"MEAN_ANOMALY":113.8486,"EPHEMERIS_TYPE":0,"CLASSIFICATION_TYPE":"U","NORAD_CAT_ID":59564,"ELEMENT_SET_NO":999,"REV_AT_EPOCH":10653,"BSTAR":-6.7479256e-5,"MEAN_MOTION_DOT":-2.118e-5,"MEAN_MOTION_DDOT":0}]
